ONEWEB-0350             
1 49214U 21083AE  25317.15720506 -.00000237  00000+0 -68290-3 0  9999
2 49214  87.9012   3.1607 0001698  87.0087 273.1237 13.13468224202575
ONEWEB-0351             
1 49215U 21083AF  25317.04932584  .00000051  00000+0  92477-4 0  9996
2 49215  87.9189 317.5419 0002710  87.1080 273.0364 13.20770806208244
ONEWEB-0352             
1 49216U 21083AG  25317.13775215  .00000135  00000+0  33414-3 0  9991
2 49216  87.9005   3.1908 0002226  96.1185 264.0198 13.13469341202667
ONEWEB-0354             
1 49217U 21083AH  25316.99895091  .00000014  00000+0  15765-5 0  9997
2 49217  87.9189 317.5510 0001692  81.2704 278.8621 13.20772479208274
ONEWEB-0355             
1 49218U 21083AJ  25317.16666631 -.00000222  00000+0 -64259-3 0  9997
2 49218  87.9010   3.1975 0001979  92.3538 267.7818 13.13470407202544
ONEWEB-0357             
1 49219U 21083AK  25317.07155501  .00000091  00000+0  19135-3 0  9992
2 49219  87.9186 317.5335 0001941  86.2853 273.8502 13.20772178208285
ONEWEB-0332             
1 49279U 21090A   25317.27247433  .00000295  00000+0  76103-3 0  9998
2 49279  87.8993 332.7363 0002040  98.5578 261.5783 13.14505306199214
ONEWEB-0347             
1 49280U 21090B   25317.28935191  .00000175  00000+0  39882-3 0  9996
2 49280  87.9179 317.5020 0001906 100.3003 259.8345 13.20771138202549
